SL-16 R/B               
1 25407U 98045B   26079.23875502  .00000055  00000+0  52059-4 0  9994
2 25407  71.0118 159.3911 0007439 351.3002   8.7991 14.16195282428595
ISS (ZARYA)             
1 25544U 98067A   26079.16224066  .00008474  00000+0  16520-3 0  9990
2 25544  51.6345  20.5881 0006234 211.0869 148.9751 15.48388697557957
CZ-4B R/B               
1 25732U 99025C   26079.09972822  .00000037  00000+0  38554-4 0  9995
2 25732  98.6605 123.1337 0036260 316.2022  69.8522 14.18267282389641
OKEAN-O                 
1 25860U 99039A   26079.12888598  .00000564  00000+0  80767-4 0  9990
2 25860  97.9419 138.9132 0000980  76.6877 283.4444 14.80351489435933
SL-16 R/B               
1 25861U 99039B   26079.16646057  .00000440  00000+0  62646-4 0  9996
2 25861  97.9943 138.2464 0013932 219.3554 140.6647 14.81744904438410
DELTA 2 R/B             
1 25876U 99041E   26078.70657713  .00000393  00000+0  10293-3 0  9992
2 25876  51.7607 261.2673 0502592  17.9781 343.8236 14.11863310364447
HELIOS 1B               
1 25977U 99064A   26079.27333671  .00001373  00000+0  15702-3 0  9995
2 25977  98.1684 341.8272 0002198  60.0405 300.1028 14.87737252686831
TERRA                   
1 25994U 99068A   26079.25776152  .00000336  00000+0  77419-4 0  9993
2 25994  97.9571 132.2877 0003285 128.9604 269.2506 14.61025112396626
SL-16 R/B               
1 26070U 00006B   26079.18627023 -.00000087  00000+0 -19829-4 0  9993
2 26070  71.0005  75.7642 0016207 173.7834 186.3494 14.15823608350045
TITAN 4B R/B            
1 26474U 00047B   26079.16493661  .00003152  00000+0  20025-3 0  9996
2 26474  67.9913  11.0527 0039171  22.9803 337.3088 15.09657761394499
ENVISAT                 
1 27386U 02009A   26078.90390921  .00000100  00000+0  46212-4 0  9992
2 27386  98.3746  32.2590 0001293  82.1557 345.6576 14.39040461260645
IDEFIX & ARIANE 42P R/B 
1 27422U 02021B   26079.26351040  .00000226  00000+0  10242-3 0  9998
2 27422  98.5882  17.7441 0012183 151.3976 208.7878 14.31032974245533
